[{"OBJECT_NAME":"CENTISPACE-1 S13","OBJECT_ID":"2025-007H","EPOCH":"2026-03-09T23:09:05.132736","MEAN_MOTION":13.82892248,"ECCENTRICITY":0.0009712,"INCLINATION":54.9822,"RA_OF_ASC_NODE":278.4888,"ARG_OF_PERICENTER":239.9953,"MEAN_ANOMALY":120.0041,"EPHEMERIS_TYPE":0,"CLASSIFICATION_TYPE":"U","NORAD_CAT_ID":62582,"ELEMENT_SET_NO":999,"REV_AT_EPOCH":6102,"BSTAR":0.00010239415,"MEAN_MOTION_DOT":-2.9e-7,"MEAN_MOTION_DDOT":0},{"OBJECT_NAME":"COSMOS 1459","OBJECT_ID":"1983-042A","EPOCH":"2026-03-09T23:03:48.626208","MEAN_MOTION":13.76814693,"ECCENTRICITY":0.00505628,"INCLINATION":82.9686,"RA_OF_ASC_NODE":253.2152,"ARG_OF_PERICENTER":97.6833,"MEAN_ANOMALY":263.0071,"EPHEMERIS_TYPE":0,"CLASSIFICATION_TYPE":"U","NORAD_CAT_ID":14057,"ELEMENT_SET_NO":999,"REV_AT_EPOCH":15208,"BSTAR":5.7651507e-5,"MEAN_MOTION_DOT":7.3e-7,"MEAN_MOTION_DDOT":0}]
